STARLINK-2322           
1 47791U 21018E   26068.73707612 -.00002878  00000+0 -85114-4 0  9994
2 47791  53.1594 242.7255 0001013  92.6426 267.4691 15.30189436276749
STRIX-4                 
1 60352U 24137A   26068.65404516  .00020530  00000+0  71820-3 0  9996
2 60352  43.0134 129.8162 0016840   5.2738 354.8289 15.29026223 88766
